     3.00           N                   E                   RINEX VERSION / TYPE
BRD_USR             ESA                 20190113 061723  UTCPGM / RUN BY / DATE
 GAL   3.7000E+01  1.3672E-01  3.0518E-04  0.0000E+00       IONOSPHERIC CORR
GAUT  1.8626451492E-09-1.776356839E-15      0 2036 GSTB   0 TIME SYSTEM CORR
GPGA  8.7311491370E-11-3.108624469E-15      0 2036 GSTB   0 TIME SYSTEM CORR
                                                            END OF HEADER
E25 2019 01 13 04 40 00 1.925421354827E-03-1.129762949859E-11 0.000000000000E+00
     2.800000000000E+01 4.218750000000E+00 2.876548391215E-09-2.244228074205E+00
     2.887099981308E-07 1.854201545939E-04 6.170943379402E-06 5.440623044968E+03
     1.680000000000E+04-4.842877388000E-08-3.072524398243E+00 2.421438694000E-08
     9.896901337323E-01 2.201562500000E+02-1.339094236799E+00-5.545945296597E-09
    -2.210806374674E-10 5.210000000000E+02 2.036000000000E+03 0.000000000000E+00
     3.120000000000E+00 0.000000000000E+00-1.164153218269E-09-1.629814505577E-09
     1.748500000000E+04 0.000000000000E+00 0.000000000000E+00 0.000000000000E+00
E27 2019 01 13 04 40 00 5.507909809239E-04-7.759126674500E-12 0.000000000000E+00
     2.800000000000E+01 9.812500000000E+00 2.964409193827E-09 1.155936034541E+00
     4.693865776062E-07 1.830545952544E-04 5.481764674187E-06 5.440620693207E+03
     1.680000000000E+04 9.313225746155E-09-3.072499129259E+00 1.490116119385E-08
     9.896573526640E-01 2.377500000000E+02-8.123845181160E-01-5.597018852587E-09
    -2.132231673151E-10 5.210000000000E+02 2.036000000000E+03 0.000000000000E+00
     3.120000000000E+00 0.000000000000E+00-2.561137080193E-09-3.026798367500E-09
     1.748500000000E+04 0.000000000000E+00 0.000000000000E+00 0.000000000000E+00
E33 2019 01 13 04 40 00 8.479120442644E-04 5.684341886081E-14 0.000000000000E+00
     2.800000000000E+01 2.412500000000E+01 2.900120801672E-09-1.918360703583E+00
     1.136213541031E-06 3.686016425490E-04 5.878508090973E-06 5.440595022202E+03
     1.680000000000E+04-3.539025783539E-08-9.899460478436E-01-2.048909664154E-08
     9.851782764011E-01 2.251562500000E+02-1.420365304808E+00-5.558445817294E-09
     2.414386283166E-10 5.210000000000E+02 2.036000000000E+03 0.000000000000E+00
     3.120000000000E+00 4.550000000000E+02-8.149072527885E-09-9.313225746155E-09
     1.748500000000E+04 0.000000000000E+00 0.000000000000E+00 0.000000000000E+00
E03 2019 01 13 04 40 00-1.215842203237E-04-4.234834705130E-12 0.000000000000E+00
     2.800000000000E+01-1.903125000000E+01 3.070127883150E-09-2.915669060748E+00
    -8.661299943924E-07 2.597526181489E-04 1.187436282635E-05 5.440625373840E+03
     1.680000000000E+04-5.587935447693E-09 1.120707053696E+00 4.842877388000E-08
     9.524530184056E-01 8.109375000000E+01 6.185647854090E-01-5.524515832545E-09
    -2.678683006471E-11 2.580000000000E+02 2.036000000000E+03 0.000000000000E+00
     3.120000000000E+00 0.000000000000E+00-1.862645149231E-09 0.000000000000E+00
     1.750000000000E+04 0.000000000000E+00 0.000000000000E+00 0.000000000000E+00
E04 2019 01 13 04 40 00-1.989505835809E-04-7.872813512222E-12 0.000000000000E+00
     2.800000000000E+01-2.700000000000E+01 3.158703001230E-09-2.057793558653E+00
    -1.296401023865E-06 7.485726382583E-05 1.033395528793E-05 5.440623470306E+03
     1.680000000000E+04 2.048909664154E-08 1.120757931061E+00 2.235174179077E-08
     9.524960164937E-01 1.149375000000E+02 2.121412319807E+00-5.562731710104E-09
     2.000083311498E-11 2.580000000000E+02 2.036000000000E+03 0.000000000000E+00
     3.120000000000E+00 0.000000000000E+00-8.149072527885E-09 0.000000000000E+00
     1.750000000000E+04 0.000000000000E+00 0.000000000000E+00 0.000000000000E+00
E05 2019 01 13 04 40 00 1.259727869183E-04-6.551204023708E-12 0.000000000000E+00
     2.800000000000E+01-1.590625000000E+01 3.149774057875E-09 3.141038381725E+00
    -7.245689630508E-07 1.358973095194E-04 1.094862818718E-05 5.440617967606E+03
     1.680000000000E+04-1.303851604462E-08 1.120691320012E+00-2.980232238770E-08
     9.524665796562E-01 1.035625000000E+02 1.632538724351E+00-5.510229523177E-09
    -4.964492505326E-11 2.580000000000E+02 2.036000000000E+03 0.000000000000E+00
     3.120000000000E+00 0.000000000000E+00-1.396983861923E-09 0.000000000000E+00
     1.750000000000E+04 0.000000000000E+00 0.000000000000E+00 0.000000000000E+00
E07 2019 01 13 04 40 00-1.115931081586E-04-7.133849067031E-12 0.000000000000E+00
     2.800000000000E+01-4.871875000000E+01 3.174060783801E-09 2.418375327222E+00
    -2.305954694748E-06 1.357805449516E-04 1.158937811852E-05 5.440622678757E+03
     1.680000000000E+04 6.891787052155E-08 1.120710077547E+00-2.421438694000E-08
     9.524969805568E-01 8.918750000000E+01-2.706066364240E-03-5.578089492674E-09
    -1.135761594744E-10 2.580000000000E+02 2.036000000000E+03 0.000000000000E+00
     3.120000000000E+00 0.000000000000E+00 2.328306436539E-10 0.000000000000E+00
     1.750000000000E+04 0.000000000000E+00 0.000000000000E+00 0.000000000000E+00
E09 2019 01 13 04 40 00 6.559831032064E-03-1.132605120802E-11 0.000000000000E+00
     2.800000000000E+01-2.593750000000E+01 3.077271037833E-09-8.193740759106E-01
    -1.313164830208E-06 2.381249796599E-04 1.069158315659E-05 5.440622230530E+03
     1.680000000000E+04 3.352761268616E-08 1.112097230742E+00 7.450580596924E-09
     9.584695513497E-01 1.115000000000E+02 9.338504350762E-02-5.511658154114E-09
    -4.500187450871E-11 2.580000000000E+02 2.036000000000E+03 0.000000000000E+00
     3.120000000000E+00 0.000000000000E+00-3.492459654808E-09 0.000000000000E+00
     1.750000000000E+04 0.000000000000E+00 0.000000000000E+00 0.000000000000E+00
E11 2019 01 13 04 40 00 5.719685286749E-03 8.242295734817E-13 0.000000000000E+00
     2.800000000000E+01 2.509375000000E+01 3.039769475743E-09 1.716251586962E+00
     1.324340701103E-06 2.783981617540E-04 5.055218935013E-06 5.440603294373E+03
     1.680000000000E+04 2.980232238770E-08-9.846237338964E-01 5.029141902924E-08
     9.819398760915E-01 2.417812500000E+02-3.463802572481E-01-5.705237646048E-09
     2.085801167705E-10 2.580000000000E+02 2.036000000000E+03 0.000000000000E+00
     3.120000000000E+00 0.000000000000E+00-1.839362084866E-08 0.000000000000E+00
     1.750000000000E+04 0.000000000000E+00 0.000000000000E+00 0.000000000000E+00
E12 2019 01 13 04 40 00 5.930849409197E-03 8.432721188001E-11 0.000000000000E+00
     2.800000000000E+01 1.809375000000E+01 2.975481083588E-09 3.021674133839E+00
     9.071081876755E-07 3.991727717221E-04 5.159527063370E-06 5.440607175827E+03
     1.680000000000E+04-7.450580596924E-08-9.846400995610E-01 3.166496753693E-08
     9.819540298240E-01 2.396875000000E+02-8.481781399898E-01-5.649878197248E-09
     2.592965150264E-10 2.580000000000E+02 2.036000000000E+03 0.000000000000E+00
     3.120000000000E+00 0.000000000000E+00-1.536682248116E-08 0.000000000000E+00
     1.750000000000E+04 0.000000000000E+00 0.000000000000E+00 0.000000000000E+00
E18 2019 01 13 04 40 00 5.610263440758E-03-2.846434199455E-11 0.000000000000E+00
     2.800000000000E+01 7.959375000000E+01 5.609162215549E-09-9.737968644453E-01
     5.546957254410E-06 1.662951664766E-01 9.579584002495E-06 5.289353431702E+03
     1.680000000000E+04-2.093613147736E-06-1.569418121913E+00 4.114583134651E-06
     8.818342776287E-01 1.880000000000E+02 1.441981562286E+00-9.312887919163E-09
    -5.425225982439E-10 2.580000000000E+02 2.036000000000E+03 0.000000000000E+00
     3.120000000000E+00 5.600000000000E+01 1.420266926289E-08 0.000000000000E+00
     1.750000000000E+04 0.000000000000E+00 0.000000000000E+00 0.000000000000E+00
E19 2019 01 13 04 40 00-9.160838089883E-06 2.700062395888E-13 0.000000000000E+00
     2.800000000000E+01-4.653125000000E+01 3.043698210819E-09-1.464198224750E+00
    -2.145767211914E-06 1.349302474409E-04 1.049414277077E-05 5.440617116928E+03
     1.680000000000E+04-8.940696716309E-08 1.117451126165E+00 5.774199962616E-08
     9.582263002574E-01 1.154062500000E+02 2.388403962772E+00-5.420582931894E-09
     1.285767843106E-11 2.580000000000E+02 2.036000000000E+03 0.000000000000E+00
     3.120000000000E+00 0.000000000000E+00-8.614733815193E-09 0.000000000000E+00
     1.750000000000E+04 0.000000000000E+00 0.000000000000E+00 0.000000000000E+00
E21 2019 01 13 04 40 00-5.141711444594E-04-1.975308805413E-12 0.000000000000E+00
     2.800000000000E+01 1.087500000000E+01 2.877977022152E-09-8.034186779556E-01
     5.606561899185E-07 4.884682130069E-05 5.451962351799E-06 5.440620929718E+03
     1.680000000000E+04 8.754432201385E-08-3.072515570995E+00-7.450580596924E-09
     9.896849257439E-01 2.358125000000E+02 3.600986969276E-01-5.532730460432E-09
    -1.871506527187E-10 2.580000000000E+02 2.036000000000E+03 0.000000000000E+00
     3.120000000000E+00 0.000000000000E+00-2.095475792885E-09 0.000000000000E+00
     1.750000000000E+04 0.000000000000E+00 0.000000000000E+00 0.000000000000E+00
E25 2019 01 13 04 40 00 1.925421238411E-03-1.131184035330E-11 0.000000000000E+00
     2.800000000000E+01 4.218750000000E+00 2.876548391215E-09-2.244228074205E+00
     2.887099981308E-07 1.854201545939E-04 6.170943379402E-06 5.440623044968E+03
     1.680000000000E+04-4.842877388000E-08-3.072524398243E+00 2.421438694000E-08
     9.896901337323E-01 2.201562500000E+02-1.339094236799E+00-5.545945296597E-09
    -2.210806374674E-10 2.580000000000E+02 2.036000000000E+03 0.000000000000E+00
     3.120000000000E+00 0.000000000000E+00-1.164153218269E-09 0.000000000000E+00
     1.750000000000E+04 0.000000000000E+00 0.000000000000E+00 0.000000000000E+00
